DUBAISAT-1              
1 35682U 09041B   26181.38403666  .00000919  00000+0  14357-3 0  9993
2 35682  98.0068 314.4982 0011042  35.2530 324.9407 14.75144935907046
OCEANSAT-2              
1 35931U 09051A   26181.56741837 -.00000236  00000+0 -13590-3 0  9998
2 35931  98.2319 167.0835 0016293 196.1853 163.8795 13.99659947881209
WORLDVIEW-2 (WV-2)      
1 35946U 09055A   26181.52430686  .00000115  00000+0  52546-4 0  9990
2 35946  98.4764 254.7913 0004561 167.5097 192.6204 14.37903106877560
SMOS                    
1 36036U 09059A   26181.46316007  .00000242  00000+0  91019-4 0  9997
2 36036  98.4424   8.6036 0001306  87.4911 272.6427 14.39779556875369
YAOGAN-7                
1 36110U 09069A   26181.29011802  .00000497  00000+0  75876-4 0  9992
2 36110  98.0055  67.0754 0024624   0.4725 359.6504 14.78022587891560
TANDEM-X                
1 36605U 10030A   26180.50909327  .00000314  00000+0  18141-4 0  9992
2 36605  97.4454 188.0398 0001728  96.6847 263.4585 15.19149373888516
CARTOSAT-2B             
1 36795U 10035A   26181.60292228  .00000668  00000+0  98358-4 0  9994
2 36795  97.9953 232.0677 0012046 142.2728 217.9330 14.78601506861839
YAOGAN-10               
1 36834U 10038A   26181.57169334  .00001532  00000+0  18425-3 0  9995
2 36834  97.8968 204.8689 0001635  84.9676  67.3477 14.85387896859190
COSMO-SKYMED 4          
1 37216U 10060A   26181.54079558  .00000596  00000+0  81447-4 0  9994
2 37216  97.8882   4.9468 0001453  85.8695 274.2684 14.82156364846548
RESOURCESAT-2           
1 37387U 11015A   26181.53213817  .00000096  00000+0  64021-4 0  9995
2 37387  98.7640 248.8815 0010729 213.6929 146.3567 14.21603018788079
HAIYANG-2A              
1 37781U 11043A   26181.58070939  .00000002  00000+0  48329-4 0  9995
2 37781  99.3403 183.9569 0004794  63.1268 297.0370 13.73993402748498
RASAT                   
1 37791U 11044D   26181.54744856  .00000597  00000+0  11195-3 0  9998
2 37791  98.0586 272.7405 0021182 146.6853 338.4329 14.68179304795140
SRMSAT                  
1 37841U 11058D   26181.50653752  .00000386  00000+0  65689-4 0  9993
2 37841  19.9734 338.8527 0011784 350.9994  51.1229 14.11578316759709
PLEIADES 1A             
1 38012U 11076F   26181.58036995  .00000417  00000+0  99535-4 0  9998
2 38012  98.1981 256.5033 0001769  87.5774  19.8299 14.58539377773947
ZIYUAN 1-02C (ZY 1-02C) 
1 38038U 11079A   26181.58079198  .00000646  00000+0  22690-3 0  9992
2 38038  98.4074 248.6093 0005108 268.0280 197.9354 14.38226111761133
ARIRANG-3 (KOMPSAT-3)   
1 38338U 12025B   26181.58191660  .00000432  00000+0  95029-4 0  9996
2 38338  98.1177 138.8111 0006778  75.8498 284.3456 14.62217694753304
EXACTVIEW-1 (ADS-1B)    
1 38709U 12039C   26181.30091228  .00000115  00000+0  68803-4 0  9990
2 38709  98.9792 298.9881 0011727 130.6772 229.5427 14.24988391724577
SPOT 6                  
1 38755U 12047A   26181.50661854  .00000527  00000+0  12319-3 0  9997
2 38755  98.2121 248.6597 0001268  74.2229 285.9110 14.58531076734995
PLEIADES 1B             
1 39019U 12068A   26181.52538234  .00000536  00000+0  12501-3 0  9994
2 39019  98.1951 256.3936 0001707  82.8769 277.2624 14.58569267722796
GOKTURK 2               
1 39030U 12073A   26181.57552931  .00000421  00000+0  68644-4 0  9991
2 39030  97.6811  18.3356 0001086  61.6346 298.4973 14.75555510726483
LANDSAT 8               
1 39084U 13008A   26181.55275096  .00000324  00000+0  81909-4 0  9992
2 39084  98.2299 251.5290 0001347  93.4498 266.6854 14.57103199699844
SARAL                   
1 39086U 13009A   26181.51822166  .00000073  00000+0  42746-4 0  9994
2 39086  98.5557   7.9165 0000900 209.8291 150.2842 14.32859079697513
GAOFEN-1                
1 39150U 13018A   26181.61641424  .00001081  00000+0  16219-3 0  9998
2 39150  97.9097 253.4121 0016016 219.3865 140.6181 14.76504732710229
VNREDSAT 1              
1 39160U 13021B   26181.54545122  .00000826  00000+0  16308-3 0  9998
2 39160  97.9077 234.4489 0001708  81.7468 278.3929 14.64871297702248
ARIRANG-5 (KOMPSAT-5)   
1 39227U 13042A   26181.20181678  .00001992  00000+0  14653-3 0  9996
2 39227  97.6190   7.7178 0005077  91.6658 268.5150 15.04527377705810
SKYSAT-A                
1 39418U 13066C   26181.08762456  .00003350  00000+0  19232-3 0  9997
2 39418  97.3807 230.0738 0019696 269.2466  90.6508 15.13042686690436
DUBAISAT-2              
1 39419U 13066D   26181.52097439  .00005008  00000+0  30928-3 0  9996
2 39419  97.4558 171.3167 0010933 356.7448   3.3709 15.10278812688408
GPM-CORE                
1 39574U 14009C   26181.54632933  .00009881  00000+0  21419-3 0  9990
2 39574  64.9717 263.3774 0011331 256.9134 103.0742 15.44844316699871
SENTINEL-1A             
1 39634U 14016A   26181.53319865  .00000274  00000+0  67798-4 0  9998
2 39634  98.1774 188.8710 0001384  82.9282 277.2075 14.59200163651961
KAZEOSAT 1              
1 39731U 14024A   26181.55167265  .00000297  00000+0  10331-3 0  9997
2 39731  98.3209 253.6667 0001179  75.8580 284.2741 14.42085541640486
