OBJECT_NAME,OBJECT_ID,EPOCH,MEAN_MOTION,ECCENTRICITY,INCLINATION,RA_OF_ASC_NODE,ARG_OF_PERICENTER,MEAN_ANOMALY,EPHEMERIS_TYPE,CLASSIFICATION_TYPE,NORAD_CAT_ID,ELEMENT_SET_NO,REV_AT_EPOCH,BSTAR,MEAN_MOTION_DOT,MEAN_MOTION_DDOT
DUBAISAT-1,2009-041B,2026-06-30T09:13:00.767424,14.75144935,.0011042,98.0068,314.4982,35.2530,324.9407,0,U,35682,999,90704,.14356692E-3,.919E-5,0
OCEANSAT-2,2009-051A,2026-06-30T13:37:04.947168,13.99659947,.00162933,98.2319,167.0835,196.1853,163.8795,0,U,35931,999,88120,-.13590343E-3,-.236E-5,0
WORLDVIEW-2 (WV-2),2009-055A,2026-06-30T12:35:00.112704,14.37903106,.00045616,98.4764,254.7913,167.5097,192.6204,0,U,35946,999,87756,.5254555E-4,.115E-5,0
SMOS,2009-059A,2026-06-30T11:06:57.030048,14.39779556,.00013065,98.4424,8.6036,87.4911,272.6427,0,U,36036,999,87536,.9101933E-4,.242E-5,0
YAOGAN-7,2009-069A,2026-06-30T06:57:46.196928,14.78022587,.00246249,98.0055,67.0754,0.4725,359.6504,0,U,36110,999,89156,.7587625E-4,.497E-5,0
TANDEM-X,2010-030A,2026-06-29T12:13:05.658528,15.19149373,.00017288,97.4454,188.0398,96.6847,263.4585,0,U,36605,999,88851,.18141346E-4,.314E-5,0
CARTOSAT-2B,2010-035A,2026-06-30T14:28:12.484992,14.78601506,.0012046,97.9953,232.0677,142.2728,217.9330,0,U,36795,999,86183,.98358E-4,.668E-5,0
YAOGAN-10,2010-038A,2026-06-30T13:43:14.304576,14.85387896,.00016357,97.8968,204.8689,84.9676,67.3477,0,U,36834,999,85919,.18425236E-3,.1532E-4,0
COSMO-SKYMED 4,2010-060A,2026-06-30T12:58:44.738112,14.82156364,.00014535,97.8882,4.9468,85.8695,274.2684,0,U,37216,999,84654,.81446818E-4,.596E-5,0
RESOURCESAT-2,2011-015A,2026-06-30T12:46:16.737888,14.21603018,.00107296,98.7640,248.8815,213.6929,146.3567,0,U,37387,999,78807,.64021412E-4,.96E-6,0
HAIYANG-2A,2011-043A,2026-06-30T13:56:13.291296,13.73993402,.0004794,99.3403,183.9569,63.1268,297.0370,0,U,37781,999,74849,.48329E-4,.2E-7,0
RASAT,2011-044D,2026-06-30T13:08:19.555584,14.68179304,.0021182,98.0586,272.7405,146.6853,338.4329,0,U,37791,999,79514,.11195051E-3,.597E-5,0
SRMSAT,2011-058D,2026-06-30T12:09:24.841728,14.11578316,.00117844,19.9734,338.8527,350.9994,51.1229,0,U,37841,999,75970,.65689457E-4,.386E-5,0
PLEIADES 1A,2011-076F,2026-06-30T13:55:43.963680,14.58539377,.00017692,98.1981,256.5033,87.5774,19.8299,0,U,38012,999,77394,.99534634E-4,.417E-5,0
ZIYUAN 1-02C (ZY 1-02C),2011-079A,2026-06-30T13:56:20.427072,14.38226111,.00051086,98.4074,248.6093,268.0280,197.9354,0,U,38038,999,76113,.22689933E-3,.646E-5,0
ARIRANG-3 (KOMPSAT-3),2012-025B,2026-06-30T13:57:57.594240,14.62217694,.00067787,98.1177,138.8111,75.8498,284.3456,0,U,38338,999,75330,.95028809E-4,.432E-5,0
EXACTVIEW-1 (ADS-1B),2012-039C,2026-06-30T07:13:18.820992,14.24988391,.00117271,98.9792,298.9881,130.6772,229.5427,0,U,38709,999,72457,.6880317E-4,.115E-5,0
SPOT 6,2012-047A,2026-06-30T12:09:31.841856,14.58531076,.0001268,98.2121,248.6597,74.2229,285.9110,0,U,38755,999,73499,.12319404E-3,.527E-5,0
PLEIADES 1B,2012-068A,2026-06-30T12:36:33.034176,14.58569267,.00017079,98.1951,256.3936,82.8769,277.2624,0,U,39019,999,72279,.12501491E-3,.536E-5,0
GOKTURK 2,2012-073A,2026-06-30T13:48:45.732384,14.75555510,.00010867,97.6811,18.3356,61.6346,298.4973,0,U,39030,999,72648,.68644475E-4,.421E-5,0
LANDSAT 8,2013-008A,2026-06-30T13:15:57.682944,14.57103199,.0001347,98.2299,251.5290,93.4498,266.6854,0,U,39084,999,69984,.81909109E-4,.324E-5,0
SARAL,2013-009A,2026-06-30T12:26:14.351424,14.32859079,.00009005,98.5557,7.9165,209.8291,150.2842,0,U,39086,999,69751,.42746493E-4,.73E-6,0
GAOFEN-1,2013-018A,2026-06-30T14:47:38.190336,14.76504732,.0016016,97.9097,253.4121,219.3865,140.6181,0,U,39150,999,71022,.16219E-3,.1081E-4,0
VNREDSAT 1,2013-021B,2026-06-30T13:05:26.985408,14.64871297,.00017081,97.9077,234.4489,81.7468,278.3929,0,U,39160,999,70224,.16307806E-3,.826E-5,0
ARIRANG-5 (KOMPSAT-5),2013-042A,2026-06-30T04:50:36.969792,15.04527377,.00050779,97.6190,7.7178,91.6658,268.5150,0,U,39227,999,70581,.14652908E-3,.1992E-4,0
SKYSAT-A,2013-066C,2026-06-30T02:06:10.761984,15.13042686,.0019696,97.3807,230.0738,269.2466,90.6508,0,U,39418,999,69043,.19231518E-3,.335E-4,0
DUBAISAT-2,2013-066D,2026-06-30T12:30:12.187296,15.10278812,.00109338,97.4558,171.3167,356.7448,3.3709,0,U,39419,999,68840,.30927725E-3,.5008E-4,0
GPM-CORE,2014-009C,2026-06-30T13:06:42.854112,15.44844316,.00113314,64.9717,263.3774,256.9134,103.0742,0,U,39574,999,69987,.2141937E-3,.9881E-4,0
SENTINEL-1A,2014-016A,2026-06-30T12:47:48.363360,14.59200163,.00013849,98.1774,188.8710,82.9282,277.2075,0,U,39634,999,65196,.67797891E-4,.274E-5,0
KAZEOSAT 1,2014-024A,2026-06-30T13:14:24.516960,14.42085541,.00011795,98.3209,253.6667,75.8580,284.2741,0,U,39731,999,64048,.10331261E-3,.297E-5,0
